SENTINEL-6              
1 46984U 20086A   23305.46915829 -.00000044  00000+0  74549-4 0  9995
2 46984  66.0418 326.3207 0007926 268.2853  91.7254 12.80930853137535
